BEIDOU-2 IGSO-1 (C06)   
1 36828U 10036A   24007.86455431 -.00000045  00000+0  00000+0 0  9994
2 36828  54.2444 171.0286 0038553 191.4402 164.4007  1.00273875 49268
BEIDOU-2 G4 (C04)       
1 37210U 10057A   24007.88774014 -.00000086  00000+0  00000+0 0  9991
2 37210   1.4619  65.6690 0007445 191.6081 329.3028  1.00272632 48354
BEIDOU-2 IGSO-2 (C07)   
1 37256U 10068A   24007.67717900 -.00000182  00000+0  00000+0 0  9998
2 37256  49.1777 282.7884 0031789 215.4456 316.3528  1.00301929 47851
BEIDOU-2 IGSO-3 (C08)   
1 37384U 11013A   24007.54462556 -.00000166  00000+0  00000+0 0  9993
2 37384  61.1182  48.6762 0029443 183.5509 175.5324  1.00299510 46714
BEIDOU-2 IGSO-4 (C09)   
1 37763U 11038A   24007.33651941  .00000084  00000+0  00000+0 0  9994
2 37763  54.5526 173.6130 0116506 226.4299 280.5966  1.00292699 45709
BEIDOU-2 IGSO-5 (C10)   
1 37948U 11073A   24007.73107437 -.00000137  00000+0  00000+0 0  9998
2 37948  49.3071 282.4658 0094194 221.2819 320.2273  1.00287877 44191
BEIDOU-2 G5 (C05)       
1 38091U 12008A   24007.86993878  .00000082  00000+0  00000+0 0  9991
2 38091   2.0108  70.2090 0008900 215.8352 192.7260  1.00272327 43430
BEIDOU-2 M3 (C11)       
1 38250U 12018A   24007.30906412 -.00000072  00000+0  00000+0 0  9996
2 38250  56.4421 334.7249 0024734 265.6368  94.0778  1.86231214 79335
BEIDOU-2 M4 (C12)       
1 38251U 12018B   24007.23997055 -.00000073  00000+0  00000+0 0  9993
2 38251  56.3511 334.0111 0015742 270.1873  89.6296  1.86231969 79339
BEIDOU-2 M6 (C14)       
1 38775U 12050B   24006.94963586 -.00000035  00000+0  00000+0 0  9997
2 38775  55.7851  92.5920 0011916 328.7470  31.2052  1.86231031 76695
BEIDOU-2 G6 (C02)       
1 38953U 12059A   24007.84307086 -.00000149  00000+0  00000+0 0  9997
2 38953   2.1471  81.5087 0009372 289.5058 123.3634  1.00269477 40970
BEIDOU-3S IGSO-1S (C31) 
1 40549U 15019A   24007.80804735 -.00000181  00000+0  00000+0 0  9995
2 40549  50.8740 306.0974 0035369 195.2668 351.5151  1.00284865 32134
BEIDOU-3S M2S (C58)     
1 40748U 15037A   24007.44158529 -.00000073  00000+0  00000+0 0  9999
2 40748  55.5878 332.5263 0011938 262.4663  97.3950  1.86233125 57510
BEIDOU-3S M1S (C57)     
1 40749U 15037B   24006.10098478 -.00000076  00000+0  00000+0 0  9991
2 40749  55.5917 332.5584 0006901 319.9014  40.0467  1.86232979 57494
BEIDOU-3S IGSO-2S (C56) 
1 40938U 15053A   24007.67087529 -.00000094  00000+0  00000+0 0  9997
2 40938  50.6110 269.2928 0045740 192.6131 339.7877  1.00254799 30419
BEIDOU-2 IGSO-6 (C13)   
1 41434U 16021A   24007.06785706 -.00000137  00000+0  00000+0 0  9998
2 41434  58.9308  46.9932 0050003 224.7399 312.7488  1.00258973 28534
BEIDOU-2 G7 (C03)       
1 41586U 16037A   24007.87781955 -.00000327  00000+0  00000+0 0  9995
2 41586   1.5208  66.9523 0009960 315.5753 150.8395  1.00264609 27857
BEIDOU-3 M1 (C19)       
1 43001U 17069A   24007.78974491 -.00000033  00000+0  00000+0 0  9998
2 43001  55.9366  92.6399 0009960 289.9669  69.9500  1.86231299 42001
BEIDOU-3 M2 (C20)       
1 43002U 17069B   24007.72668736 -.00000033  00000+0  00000+0 0  9995
2 43002  55.9361  92.6773 0007206 312.3295  47.6334  1.86231039 41997
BEIDOU-3 M7 (C27)       
1 43107U 18003A   24007.47684338 -.00000074  00000+0  00000+0 0  9993
2 43107  55.0449 333.1868 0003417  45.2095 314.8157  1.86232331 40749
BEIDOU-3 M8 (C28)       
1 43108U 18003B   24006.34205909 -.00000076  00000+0  00000+0 0  9994
2 43108  55.0386 333.2121 0004683 272.1329  87.8126  1.86230876 40734
BEIDOU-3 M4 (C22)       
1 43207U 18018A   24006.78387636 -.00000035  00000+0  00000+0 0  9991
2 43207  55.8947  92.7681 0004066 339.3310  20.6752  1.86231272 40128
BEIDOU-3 M3 (C21)       
1 43208U 18018B   24006.31354183 -.00000036  00000+0  00000+0 0  9993
2 43208  55.8939  92.7883 0007339 299.4847  60.4647  1.86231472 40117
BEIDOU-3 M9 (C29)       
1 43245U 18029A   24007.60966824 -.00000074  00000+0  00000+0 0  9992
2 43245  54.9345 330.9056 0001888 295.2979  64.6794  1.86232530 39293
BEIDOU-3 M10 (C30)      
1 43246U 18029B   24007.53953574 -.00000074  00000+0  00000+0 0  9993
2 43246  54.9314 330.9358 0004710 348.1561  11.8297  1.86232690 39274
BEIDOU-2 IGSO-7 (C16)   
1 43539U 18057A   24007.86455407 -.00000040  00000+0  00000+0 0  9990
2 43539  55.1280 170.7568 0064750 228.9801 127.4753  1.00245208 20208
BEIDOU-3 M5 (C23)       
1 43581U 18062A   24007.76042347  .00000132  00000+0  00000+0 0  9998
2 43581  54.1542 212.6350 0001898 349.2769  10.7878  1.86228771 37035
BEIDOU-3 M6 (C24)       
1 43582U 18062B   24007.09005263  .00000130  00000+0  00000+0 0  9999
2 43582  54.1539 212.6475 0007294  38.1721 321.9475  1.86229789 37027
BEIDOU-3 M12 (C26)      
1 43602U 18067A   24007.02519675  .00000131  00000+0  00000+0 0  9998
2 43602  54.2430 211.3159 0008263  30.2798 329.8339  1.86231628 36503
BEIDOU-3 M11 (C25)      
1 43603U 18067B   24007.15904307  .00000132  00000+0  00000+0 0  9994
2 43603  54.2402 211.2769 0004964  27.3167 332.7755  1.86231555 36537
BEIDOU-3 M13 (C32)      
1 43622U 18072A   24007.65553354 -.00000034  00000+0  00000+0 0  9990
2 43622  55.8656  92.2744 0006757 283.3865  76.5626  1.86231099 36057
BEIDOU-3 M14 (C33)      
1 43623U 18072B   24005.91012831 -.00000036  00000+0  00000+0 0  9990
2 43623  55.8662  92.3257 0003876 305.4233  54.5639  1.86231120 36010
BEIDOU-3 M16 (C35)      
1 43647U 18078A   24007.14751011 -.00000075  00000+0  00000+0 0  9992
2 43647  54.8306 331.0332 0007658   2.4855 357.5157  1.86232224 35547
BEIDOU-3 M15 (C34)      
1 43648U 18078B   24007.27661424 -.00000075  00000+0  00000+0 0  9995
2 43648  54.8263 331.0321 0004546   3.2087 356.7916  1.86232078 35571
BEIDOU-3 G1 (C59)       
1 43683U 18085A   24007.88373709 -.00000253  00000+0  00000+0 0  9993
2 43683   1.8031 116.8675 0001336 349.0093  99.1979  1.00266931 19129
BEIDOU-3 M17 (C36)      
1 43706U 18093A   24007.42488749  .00000132  00000+0  00000+0 0  9994
2 43706  54.2369 212.5729 0006402 296.0468  63.9557  1.86228376 34933
BEIDOU-3 M18 (C37)      
1 43707U 18093B   24003.53282061  .00000093  00000+0  00000+0 0  9998
2 43707  54.2381 212.6972 0006329 335.7459  24.2831  1.86230008 34859
BEIDOU-3 IGSO-1 (C38)   
1 44204U 19023A   23359.85561811 -.00000224  00000+0  00000+0 0  9993
2 44204  57.3835  47.0551 0023834 204.1671 266.3544  1.00248909 17270
BEIDOU-2 G8 (C01)       
1 44231U 19027A   24007.88460733 -.00000222  00000+0  00000+0 0  9990
2 44231   1.5498  72.4338 0004113 176.3764 321.1559  1.00271413 17141
BEIDOU-3 IGSO-2 (C39)   
1 44337U 19035A   24007.83372495 -.00000059  00000+0  00000+0 0  9996
2 44337  55.1662 166.6854 0031182 200.0693 158.3044  1.00291407 16724
BEIDOU-3 M24 (C46)      
1 44542U 19061A   24005.21440607  .00000116  00000+0  00000+0 0  9997
2 44542  54.4647 212.9017 0008781  11.4190 348.6645  1.86231491 29140
BEIDOU-3 M23 (C45)      
1 44543U 19061B   24007.21737120  .00000131  00000+0  00000+0 0  9996
2 44543  54.4627 212.8035 0005580  10.8023 164.2213  1.86231868 29185
BEIDOU-3 IGSO-3 (C40)   
1 44709U 19073A   24007.18809193 -.00000194  00000+0  00000+0 0  9999
2 44709  56.3249 290.4392 0034891 182.8173 177.1921  1.00298987 15513
BEIDOU-3 M22 (C44)      
1 44793U 19078A   24007.20766271 -.00000075  00000+0  00000+0 0  9997
2 44793  54.6789 330.9829 0006498   7.4084 352.5986  1.86231994 28036
BEIDOU-3 M21 (C43)      
1 44794U 19078B   24007.33789995 -.00000075  00000+0  00000+0 0  9990
2 44794  54.6524 330.9579 0004648 356.0913   3.9024  1.86232511 28042
BEIDOU-3 M19 (C41)      
1 44864U 19090A   24007.79534766 -.00000033  00000+0  00000+0 0  9990
2 44864  55.7998  92.4505 0018068 273.9807 226.1325  1.86231560 27636
BEIDOU-3 M20 (C42)      
1 44865U 19090B   24006.51651742 -.00000036  00000+0  00000+0 0  9997
2 44865  55.8009  92.5263 0015518 286.3330 166.1546  1.86231600 27597
BEIDOU-3 G2 (C60)       
1 45344U 20017A   24005.63382819 -.00000115  00000+0  00000+0 0  9997
2 45344   2.1394  22.5015 0003134 252.1695 138.2393  1.00270883 14303
BEIDOU-3 G3 (C61)       
1 45807U 20040A   24007.92063498 -.00000327  00000+0  00000+0 0  9995
2 45807   0.5875  13.0483 0008968 301.0252 234.8548  1.00275889 13136
BEIDOU-3 G4             
1 56564U 23066A   24007.88774014 -.00000080  00000+0  00000+0 0  9992
2 56564   2.5279 288.3285 0003268 229.4485  68.8505  1.00272019  2457
BEIDOU-3 M25            
1 58654U 23207A   24007.32341788 -.00000036  00000+0  00000+0 0  9999
2 58654  54.9794  92.5870 0117634 178.8352 181.2142  1.82957736   237
BEIDOU-3 M26            
1 58655U 23207B   24005.84694770 -.00000037  00000+0  00000+0 0  9998
2 58655  54.6471  92.7627 0316732  68.9835  87.0455  1.85607573   193
